[{"OBJECT_NAME":"STARLINK-4256","OBJECT_ID":"2022-076J","EPOCH":"2026-03-09T12:02:27.766464","MEAN_MOTION":15.08835666,"ECCENTRICITY":0.00012946,"INCLINATION":53.2167,"RA_OF_ASC_NODE":94.9651,"ARG_OF_PERICENTER":86.0354,"MEAN_ANOMALY":274.0786,"EPHEMERIS_TYPE":0,"CLASSIFICATION_TYPE":"U","NORAD_CAT_ID":52994,"ELEMENT_SET_NO":999,"REV_AT_EPOCH":20281,"BSTAR":4.6169926e-5,"MEAN_MOTION_DOT":4.47e-6,"MEAN_MOTION_DDOT":0},{"OBJECT_NAME":"FENGYUN 1C DEB","OBJECT_ID":"1999-025AMC","EPOCH":"2026-03-09T19:39:36.291456","MEAN_MOTION":15.06799557,"ECCENTRICITY":0.00299661,"INCLINATION":98.9468,"RA_OF_ASC_NODE":22.995,"ARG_OF_PERICENTER":242.9892,"MEAN_ANOMALY":116.8272,"EPHEMERIS_TYPE":0,"CLASSIFICATION_TYPE":"U","NORAD_CAT_ID":30597,"ELEMENT_SET_NO":999,"REV_AT_EPOCH":99841,"BSTAR":0.005730905,"MEAN_MOTION_DOT":0.00087128,"MEAN_MOTION_DDOT":0}]
